trial,trial_type,site,date,time,chick,nest,tarsus,mass,age,sex,setup,maze_area,donour_id,donour_sex,odour_type,odour_date,odour_trial_diffdate,odours_diffdate,odour_used,scoring_order,trial_success,out_time,delay,first_side,duration
13B,B,West Mamelo,30/04/2022,12,FJ02525,-302,19.39,5.88,4,NA,3,right,FJ02522,NA,p,30/04/2022,0,2,1,26,1,41.297,42.057,1,222.018
13B,B,West Mamelo,30/04/2022,12,FJ02525,-302,19.39,5.88,4,NA,3,middle,NA,NA,NA,NA,NA,NA,NA,26,1,41.297,NA,NA,145.122
13B,B,West Mamelo,30/04/2022,12,FJ02525,-302,19.39,5.88,4,NA,3,chamber,NA,NA,NA,NA,NA,NA,NA,26,1,41.297,NA,NA,322.534
14A,A,F,02/05/2022,10,FJ02526,-304,19.85,8.20,5,NA,2,left,FJ02522,NA,np,30/04/2022,2,NA,2,16,0,NA,NA,NA,0
14A,A,F,02/05/2022,10,FJ02526,-304,19.85,8.20,5,NA,2,right,NA,NA,c,NA,NA,NA,NA,16,0,NA,NA,NA,0
14A,A,F,02/05/2022,10,FJ02526,-304,19.85,8.20,5,NA,2,middle,NA,NA,NA,NA,NA,NA,NA,16,0,NA,NA,NA,0
14A,A,F,02/05/2022,10,FJ02526,-304,19.85,8.20,5,NA,2,chamber,NA,NA,NA,NA,NA,NA,NA,16,0,NA,NA,NA,900
14B,B,F,02/05/2022,10,FJ02526,-304,19.85,8.20,5,NA,2,left,FH68778,NA,p,02/05/2022,0,2,1,24,0,NA,NA,NA,0
14B,B,F,02/05/2022,10,FJ02526,-304,19.85,8.20,5,NA,2,right,FJ02523,NA,np,30/04/2022,2,2,1,24,0,NA,NA,NA,0
14B,B,F,02/05/2022,10,FJ02526,-304,19.85,8.20,5,NA,2,middle,NA,NA,NA,NA,NA,NA,NA,24,0,NA,NA,NA,0
14B,B,F,02/05/2022,10,FJ02526,-304,19.85,8.20,5,NA,2,chamber,NA,NA,NA,NA,NA,NA,NA,24,0,NA,NA,NA,900
15A,A,Pandaroa,03/05/2022,15,FJ02527,-306,24.65,14.45,19,NA,3,left,NA,NA,c,NA,NA,NA,NA,12,0,NA,NA,NA,0
15A,A,Pandaroa,03/05/2022,15,FJ02527,-306,24.65,14.45,19,NA,3,right,FH68778,NA,np,02/05/2022,1,NA,2,12,0,NA,NA,NA,0
15A,A,Pandaroa,03/05/2022,15,FJ02527,-306,24.65,14.45,19,NA,3,middle,NA,NA,NA,NA,NA,NA,NA,12,0,NA,NA,NA,0
15A,A,Pandaroa,03/05/2022,15,FJ02527,-306,24.65,14.45,19,NA,3,chamber,NA,NA,NA,NA,NA,NA,NA,12,0,NA,NA,NA,900
16A,A,Pandaroa,03/05/2022,16,FJ02528,-307,24.70,17.46,19,NA,4,left,NA,NA,c,NA,NA,NA,NA,50,0,NA,NA,NA,0
16A,A,Pandaroa,03/05/2022,16,FJ02528,-307,24.70,17.46,19,NA,4,right,FH73255,NA,np,02/05/2022,1,NA,1,50,0,NA,NA,NA,0
16A,A,Pandaroa,03/05/2022,16,FJ02528,-307,24.70,17.46,19,NA,4,middle,NA,NA,NA,NA,NA,NA,NA,50,0,NA,NA,NA,0
16A,A,Pandaroa,03/05/2022,16,FJ02528,-307,24.70,17.46,19,NA,4,chamber,NA,NA,NA,NA,NA,NA,NA,50,0,NA,NA,NA,900
17A,A,D,04/05/2022,14,FJ02529,-308,23.12,10.43,14,NA,1,left,FH73255,NA,np,02/05/2022,2,NA,2,69,0,NA,NA,NA,0
17A,A,D,04/05/2022,14,FJ02529,-308,23.12,10.43,14,NA,1,right,NA,NA,c,NA,NA,NA,NA,69,0,NA,NA,NA,0
17A,A,D,04/05/2022,14,FJ02529,-308,23.12,10.43,14,NA,1,middle,NA,NA,NA,NA,NA,NA,NA,69,0,NA,NA,NA,0
17A,A,D,04/05/2022,14,FJ02529,-308,23.12,10.43,14,NA,1,chamber,NA,NA,NA,NA,NA,NA,NA,69,0,NA,NA,NA,900
17B,B,D,04/05/2022,14,FJ02529,-308,23.12,10.43,14,NA,1,left,FH68778,NA,np,02/05/2022,0,2,3,66,0,NA,NA,NA,0
17B,B,D,04/05/2022,14,FJ02529,-308,23.12,10.43,14,NA,1,right,FH80577,NA,p,04/05/2022,2,2,1,66,0,NA,NA,NA,0
17B,B,D,04/05/2022,14,FJ02529,-308,23.12,10.43,14,NA,1,middle,NA,NA,NA,NA,NA,NA,NA,66,0,NA,NA,NA,0
17B,B,D,04/05/2022,14,FJ02529,-308,23.12,10.43,14,NA,1,chamber,NA,NA,NA,NA,NA,NA,NA,66,0,NA,NA,NA,900
18A,A,Sirasira Coco,05/05/2022,14,FJ02531,-309,26.01,23.62,22,NA,2,left,FH73255,NA,np,02/05/2022,3,NA,3,33,1,731.643,737.434,1,15.665
18A,A,Sirasira Coco,05/05/2022,14,FJ02531,-309,26.01,23.62,22,NA,2,right,NA,NA,c,NA,NA,NA,NA,33,1,731.643,744.08,0,14.762
18A,A,Sirasira Coco,05/05/2022,14,FJ02531,-309,26.01,23.62,22,NA,2,middle,NA,NA,NA,NA,NA,NA,NA,33,1,731.643,NA,NA,70.31
18A,A,Sirasira Coco,05/05/2022,14,FJ02531,-309,26.01,23.62,22,NA,2,chamber,NA,NA,NA,NA,NA,NA,NA,33,1,731.643,NA,NA,799.263
18B,B,Sirasira Coco,05/05/2022,14,FJ02531,-309,26.01,23.62,22,NA,2,left,FJ02530,NA,p,05/05/2022,0,1,1,35,0,NA,NA,NA,0
18B,B,Sirasira Coco,05/05/2022,14,FJ02531,-309,26.01,23.62,22,NA,2,right,FH80577,NA,np,04/05/2022,1,1,2,35,0,NA,NA,NA,0
18B,B,Sirasira Coco,05/05/2022,14,FJ02531,-309,26.01,23.62,22,NA,2,middle,NA,NA,NA,NA,NA,NA,NA,35,0,NA,NA,NA,0
18B,B,Sirasira Coco,05/05/2022,14,FJ02531,-309,26.01,23.62,22,NA,2,chamber,NA,NA,NA,NA,NA,NA,NA,35,0,NA,NA,NA,900
19A,A,Sirasira Coco,06/05/2022,14,FJ02532,-311,19.84,6.76,5,NA,3,left,NA,NA,c,NA,NA,NA,NA,43,0,NA,NA,NA,0
19A,A,Sirasira Coco,06/05/2022,14,FJ02532,-311,19.84,6.76,5,NA,3,right,FH80577,NA,np,04/05/2022,2,NA,3,43,0,NA,NA,NA,0
19A,A,Sirasira Coco,06/05/2022,14,FJ02532,-311,19.84,6.76,5,NA,3,middle,NA,NA,NA,NA,NA,NA,NA,43,0,NA,NA,NA,0
19A,A,Sirasira Coco,06/05/2022,14,FJ02532,-311,19.84,6.76,5,NA,3,chamber,NA,NA,NA,NA,NA,NA,NA,43,0,NA,NA,NA,900
20A,A,Sirasira Coco,06/05/2022,14,FJ02533,-311,20.44,7.13,7,NA,4,left,NA,NA,c,NA,NA,NA,NA,29,0,NA,NA,NA,0
20A,A,Sirasira Coco,06/05/2022,14,FJ02533,-311,20.44,7.13,7,NA,4,right,FJ02530,NA,np,05/05/2022,1,NA,2,29,0,NA,NA,NA,0
20A,A,Sirasira Coco,06/05/2022,14,FJ02533,-311,20.44,7.13,7,NA,4,middle,NA,NA,NA,NA,NA,NA,NA,29,0,NA,NA,NA,0
20A,A,Sirasira Coco,06/05/2022,14,FJ02533,-311,20.44,7.13,7,NA,4,chamber,NA,NA,NA,NA,NA,NA,NA,29,0,NA,NA,NA,900
21A,A,Sirasira Coco,06/05/2022,15,FJ02534,-312,19.45,6.52,4,NA,1,left,FJ02530,NA,np,05/05/2022,1,NA,3,15,0,NA,NA,NA,0
21A,A,Sirasira Coco,06/05/2022,15,FJ02534,-312,19.45,6.52,4,NA,1,right,NA,NA,c,NA,NA,NA,NA,15,0,NA,NA,NA,0
21A,A,Sirasira Coco,06/05/2022,15,FJ02534,-312,19.45,6.52,4,NA,1,middle,NA,NA,NA,NA,NA,NA,NA,15,0,NA,NA,NA,0
21A,A,Sirasira Coco,06/05/2022,15,FJ02534,-312,19.45,6.52,4,NA,1,chamber,NA,NA,NA,NA,NA,NA,NA,15,0,NA,NA,NA,900
22A,A,Sirasira Coco,06/05/2022,16,FJ02535,-312,19.86,7.00,5,NA,2,left,FH80577,NA,np,04/05/2022,2,NA,4,60,1,135.389,137.763,1,69.677
22A,A,Sirasira Coco,06/05/2022,16,FJ02535,-312,19.86,7.00,5,NA,2,right,NA,NA,c,NA,NA,NA,NA,60,1,135.389,475.388,0,80.441
22A,A,Sirasira Coco,06/05/2022,16,FJ02535,-312,19.86,7.00,5,NA,2,middle,NA,NA,NA,NA,NA,NA,NA,60,1,135.389,NA,NA,116.219
22A,A,Sirasira Coco,06/05/2022,16,FJ02535,-312,19.86,7.00,5,NA,2,chamber,NA,NA,NA,NA,NA,NA,NA,60,1,135.389,NA,NA,633.663
23A,A,Sirasira Coco,06/05/2022,17,FJ02536,-313,25.04,21.00,20,NA,3,left,NA,NA,c,NA,NA,NA,NA,44,0,NA,NA,NA,0
23A,A,Sirasira Coco,06/05/2022,17,FJ02536,-313,25.04,21.00,20,NA,3,right,FJ02530,NA,np,05/05/2022,1,NA,4,44,0,NA,NA,NA,0
23A,A,Sirasira Coco,06/05/2022,17,FJ02536,-313,25.04,21.00,20,NA,3,middle,NA,NA,NA,NA,NA,NA,NA,44,0,NA,NA,NA,0
23A,A,Sirasira Coco,06/05/2022,17,FJ02536,-313,25.04,21.00,20,NA,3,chamber,NA,NA,NA,NA,NA,NA,NA,44,0,NA,NA,NA,900
24A,A,Sirasira Coco,07/05/2022,10,FJ02537,-310,20.06,6.69,6,NA,4,left,NA,NA,c,NA,NA,NA,NA,45,0,NA,NA,NA,0
24A,A,Sirasira Coco,07/05/2022,10,FJ02537,-310,20.06,6.69,6,NA,4,right,FJ02530,NA,np,05/05/2022,2,NA,5,45,0,NA,NA,NA,0
24A,A,Sirasira Coco,07/05/2022,10,FJ02537,-310,20.06,6.69,6,NA,4,middle,NA,NA,NA,NA,NA,NA,NA,45,0,NA,NA,NA,0
24A,A,Sirasira Coco,07/05/2022,10,FJ02537,-310,20.06,6.69,6,NA,4,chamber,NA,NA,NA,NA,NA,NA,NA,45,0,NA,NA,NA,900
25A,A,Sirasira Coco,07/05/2022,15,FJ02533,-311,20.59,7.00,7,NA,1,left,FJ02530,NA,np,05/05/2022,2,NA,6,71,1,777.882,NA,0,0
25A,A,Sirasira Coco,07/05/2022,15,FJ02533,-311,20.59,7.00,7,NA,1,right,NA,NA,c,NA,NA,NA,NA,71,1,777.882,784.34,1,6.075
25A,A,Sirasira Coco,07/05/2022,15,FJ02533,-311,20.59,7.00,7,NA,1,middle,NA,NA,NA,NA,NA,NA,NA,71,1,777.882,NA,NA,14.719
25A,A,Sirasira Coco,07/05/2022,15,FJ02533,-311,20.59,7.00,7,NA,1,chamber,NA,NA,NA,NA,NA,NA,NA,71,1,777.882,NA,NA,879.206
26A,A,Sirasira Coco,07/05/2022,16,FJ02532,-311,19.89,6.80,5,NA,2,left,FH80577,NA,np,04/05/2022,3,NA,5,68,1,266.128,271.066,1,103.591
26A,A,Sirasira Coco,07/05/2022,16,FJ02532,-311,19.89,6.80,5,NA,2,right,NA,NA,c,NA,NA,NA,NA,68,1,266.128,458.772,0,94.29
26A,A,Sirasira Coco,07/05/2022,16,FJ02532,-311,19.89,6.80,5,NA,2,middle,NA,NA,NA,NA,NA,NA,NA,68,1,266.128,NA,NA,51.067
26A,A,Sirasira Coco,07/05/2022,16,FJ02532,-311,19.89,6.80,5,NA,2,chamber,NA,NA,NA,NA,NA,NA,NA,68,1,266.128,NA,NA,651.052
27A,A,Loviky,10/05/2022,16,FJ02538,-314,25.44,25.86,21,NA,3,left,NA,NA,c,NA,NA,NA,NA,30,0,NA,NA,NA,0
27A,A,Loviky,10/05/2022,16,FJ02538,-314,25.44,25.86,21,NA,3,right,FJ02518,NA,np,09/05/2022,1,NA,1,30,0,NA,NA,NA,0
27A,A,Loviky,10/05/2022,16,FJ02538,-314,25.44,25.86,21,NA,3,middle,NA,NA,NA,NA,NA,NA,NA,30,0,NA,NA,NA,0
27A,A,Loviky,10/05/2022,16,FJ02538,-314,25.44,25.86,21,NA,3,chamber,NA,NA,NA,NA,NA,NA,NA,30,0,NA,NA,NA,900
28A,A,Lamboara South-East beach,11/05/2022,10,FJ02540,-315,24.95,14.12,19,NA,3,left,NA,NA,c,NA,NA,NA,NA,34,0,NA,NA,NA,0
28A,A,Lamboara South-East beach,11/05/2022,10,FJ02540,-315,24.95,14.12,19,NA,3,right,FH80577,NA,np,04/05/2022,7,NA,6,34,0,NA,NA,NA,0
28A,A,Lamboara South-East beach,11/05/2022,10,FJ02540,-315,24.95,14.12,19,NA,3,middle,NA,NA,NA,NA,NA,NA,NA,34,0,NA,NA,NA,0
28A,A,Lamboara South-East beach,11/05/2022,10,FJ02540,-315,24.95,14.12,19,NA,3,chamber,NA,NA,NA,NA,NA,NA,NA,34,0,NA,NA,NA,900
28B,B,Lamboara South-East beach,11/05/2022,10,FJ02540,-315,24.95,14.12,19,NA,3,left,FJ02518,NA,np,09/05/2022,2,2,2,57,0,NA,NA,NA,0
28B,B,Lamboara South-East beach,11/05/2022,10,FJ02540,-315,24.95,14.12,19,NA,3,right,FH97579,NA,p,11/05/2022,0,2,1,57,0,NA,NA,NA,0
28B,B,Lamboara South-East beach,11/05/2022,10,FJ02540,-315,24.95,14.12,19,NA,3,middle,NA,NA,NA,NA,NA,NA,NA,57,0,NA,NA,NA,0
28B,B,Lamboara South-East beach,11/05/2022,10,FJ02540,-315,24.95,14.12,19,NA,3,chamber,NA,NA,NA,NA,NA,NA,NA,57,0,NA,NA,NA,900
29A,A,Lamboara South-East beach,11/05/2022,14,FJ02542,-316,22.60,10.62,13,NA,1,left,FH97579,NA,np,11/05/2022,0,NA,2,19,1,591.411,640.782,0,4.653
29A,A,Lamboara South-East beach,11/05/2022,14,FJ02542,-316,22.60,10.62,13,NA,1,right,NA,NA,c,NA,NA,NA,NA,19,1,591.411,604.323,1,31.617
29A,A,Lamboara South-East beach,11/05/2022,14,FJ02542,-316,22.60,10.62,13,NA,1,middle,NA,NA,NA,NA,NA,NA,NA,19,1,591.411,NA,NA,18.133
29A,A,Lamboara South-East beach,11/05/2022,14,FJ02542,-316,22.60,10.62,13,NA,1,chamber,NA,NA,NA,NA,NA,NA,NA,19,1,591.411,NA,NA,845.597
29B,B,Lamboara South-East beach,11/05/2022,14,FJ02542,-316,22.60,10.62,13,NA,1,left,FJ02539,NA,np,11/05/2022,0,0,1,49,1,410.352,414.625,0,114.029
